0 NIMBUS 2 DEB
1 28203U 66040R   13283.11346892  .00001043  00000-0  19712-2 0  7103
2 28203 100.3437 335.1845 0051997 261.1745 155.5640 13.40500337562556
0 NIMBUS 2 DEB
1 28203U 66040R   13288.11410502  .00001366  00000-0  25543-2 0  7127
2 28203 100.3432 340.2881 0052727 249.5141 167.4508 13.40512256563223
0 NIMBUS 2 DEB
1 28203U 66040R   13291.09360032  .00001200  00000-0  22551-2 0  7134
2 28203 100.3427 343.3287 0053176 242.6637 145.8048 13.40520262563623
0 NIMBUS 2 DEB
1 28203U 66040R   13293.78814410  .00001293  00000-0  24209-2 0  7141
2 28203 100.3430 346.0785 0053492 236.4902 189.1027 13.40527166563984
0 NIMBUS 2 DEB
1 28203U 66040R   13295.80301729  .00001326  00000-0  24809-2 0  7154
2 28203 100.3433 348.1347 0053716 231.9150 192.4575 13.40532649564256
